{"epoch":1784710044,"count":18256,"objects":[{"id":"31797","name":"SAR LUPE 2","type":"PAYLOAD","l1":"1 31797U 07030A   26202.57224823  .00033022  00000-0  49957-3 0  9999","l2":"2 31797  98.1059 311.4049 0005409 215.6174 144.4718 15.54616912 62273"},{"id":"39088","name":"SAPPHIRE","type":"PAYLOAD","l1":"1 39088U 13009C   26202.60095246  .00000080  00000-0  42752-4 0  9997","l2":"2 39088  98.4280  21.2426 0011953 141.8555 218.3479 14.35248796701513"},{"id":"65565","name":"PRAETORIAN SDA_602","type":"PAYLOAD","l1":"1 65565U 25203A   26202.36381875  .00000089  00000-0  69042-4 0  9994","l2":"2 65565  81.3051 339.1267 0007149 103.5589 256.6364 13.83888722 43425"},{"id":"65566","name":"PRAETORIAN SDA_603","type":"PAYLOAD","l1":"1 65566U 25203B   26202.31947998  .00000204  00000-0  17250-3 0  9996","l2":"2 65566  81.3058 339.0884 0010767  99.5417 260.6957 13.83962488 43426"},{"id":"65567","name":"PRAETORIAN SDA_604","type":"PAYLOAD","l1":"1 65567U 25203C   26202.36107916  .00000099  00000-0  79609-4 0  9999","l2":"2 65567  81.3073 339.5161 0006673 107.5634 252.6251 13.83050980 43400"},{"id":"65568","name":"PRAETORIAN SDA_605","type":"PAYLOAD","l1":"1 65568U 25203D   26202.60944113  .00000107  00000-0  86484-4 0  9994","l2":"2 65568  81.3038 338.9235 0009373  98.0149 262.2071 13.83201087 43450"},{"id":"65569","name":"PRAETORIAN SDA_606","type":"PAYLOAD","l1":"1 65569U 25203E   26202.37761019  .00000047  00000-0  31716-4 0  9992","l2":"2 65569  81.3075 339.3783 0007241 102.0234 258.1734 13.83200372 43410"},{"id":"65570","name":"PRAETORIAN SDA_607","type":"PAYLOAD","l1":"1 65570U 25203F   26202.36547473  .00000190  00000-0  16051-3 0  9992","l2":"2 65570  81.3060 339.0036 0010049  99.8039 260.4252 13.83759332 43438"},{"id":"65571","name":"PRAETORIAN SDA_608","type":"PAYLOAD","l1":"1 65571U 25203G   26202.34772718  .00000089  00000-0  69992-4 0  9993","l2":"2 65571  81.3027 339.1806 0007156 106.0545 254.1400 13.83820202 43414"},{"id":"65572","name":"PRAETORIAN SDA_609","type":"PAYLOAD","l1":"1 65572U 25203H   26202.63209578  .00000107  00000-0  85144-4 0  9993","l2":"2 65572  81.3069 338.8941 0008042 100.5865 259.6198 13.84211906 43461"},{"id":"65573","name":"PRAETORIAN SDA_610","type":"PAYLOAD","l1":"1 65573U 25203J   26202.33091863  .00000106  00000-0  85026-4 0  9995","l2":"2 65573  81.3029 339.1621 0007882 105.5007 254.7021 13.83529130 43417"},{"id":"65574","name":"PRAETORIAN SDA_611","type":"PAYLOAD","l1":"1 65574U 25203K   26202.63011314  .00000190  00000-0  16180-3 0  9999","l2":"2 65574  81.3033 339.0702 0006721 109.6476 250.5406 13.83310319 43449"},{"id":"65575","name":"PRAETORIAN SDA_612","type":"PAYLOAD","l1":"1 65575U 25203L   26202.64898511  .00000148  00000-0  12015-3 0  9999","l2":"2 65575  81.3050 338.5545 0010372  99.2960 260.9371 13.85041612 43486"},{"id":"65576","name":"PRAETORIAN SDA_613","type":"PAYLOAD","l1":"1 65576U 25203M   26202.36095530  .00000083  00000-0  64912-4 0  9991","l2":"2 65576  81.3020 339.3425 0006826 101.1446 259.0478 13.82768434 43405"},{"id":"65577","name":"PRAETORIAN SDA_614","type":"PAYLOAD","l1":"1 65577U 25203N   26202.35566206  .00000064  00000-0  46486-4 0  9999","l2":"2 65577  81.3034 338.9126 0008281  98.8712 261.3383 13.84779082 43447"},{"id":"65578","name":"PRAETORIAN SDA_615","type":"PAYLOAD","l1":"1 65578U 25203P   26202.63003691  .00000174  00000-0  14484-3 0  9999","l2":"2 65578  81.3043 338.6439 0010193  98.1730 262.0583 13.84439264 43478"},{"id":"65579","name":"PRAETORIAN SDA_616","type":"PAYLOAD","l1":"1 65579U 25203Q   26202.34102352  .00000185  00000-0  15766-3 0  9998","l2":"2 65579  81.3085 339.5054 0006681 108.1953 251.9931 13.83270873 43409"},{"id":"65580","name":"PRAETORIAN SDA_617","type":"PAYLOAD","l1":"1 65580U 25203R   26202.65489263  .00000071  00000-0  53537-4 0  9996","l2":"2 65580  81.3058 339.0434 0008546  98.4461 261.7664 13.83152776 43453"},{"id":"65581","name":"PRAETORIAN SDA_618","type":"PAYLOAD","l1":"1 65581U 25203S   26202.38152599  .00000166  00000-0  13773-3 0  9998","l2":"2 65581  81.3043 338.8077 0010906 101.6911 258.5470 13.84226271 43449"},{"id":"65582","name":"PRAETORIAN SDA_619","type":"PAYLOAD","l1":"1 65582U 25203T   26202.35850600  .00000152  00000-0  12640-3 0  9991","l2":"2 65582  81.3064 339.1635 0009339  99.6448 260.5764 13.83806565 44052"},{"id":"65583","name":"PRAETORIAN SDA_620","type":"PAYLOAD","l1":"1 65583U 25203U   26202.61327333  .00000138  00000-0  11526-3 0  9999","l2":"2 65583  81.3050 338.9643 0008689  96.8847 263.3298 13.83209156 43452"},{"id":"65584","name":"PRAETORIAN SDA_621","type":"PAYLOAD","l1":"1 65584U 25203V   26202.36035117  .00000095  00000-0  75167-4 0  9992","l2":"2 65584  81.3041 339.0921 0008523  94.4853 265.7277 13.83804674 43428"},{"id":"65585","name":"PRAETORIAN SDA_601","type":"PAYLOAD","l1":"1 65585U 25203X   26202.34662717  .00000504  00000-0  44901-3 0  9999","l2":"2 65585  81.3061 339.4408 0006727 110.6295 249.5583 13.83170890 43404"},{"id":"69646","name":"VICTUS HAZE PUMA","type":"PAYLOAD","l1":"1 69646U 26142A   26201.83709822  .00001963  00000-0  90563-4 0  9992","l2":"2 69646  97.4457  99.0756 0026523 246.3407 113.5045 15.21144501  4781"}]}